API VERSION: 1.2
API SOURCE: NASA/JPL Horizons API



*******************************************************************************
Ephemeris / API_USER Tue Apr  7 13:17:39 2026 Pasadena, USA      / Horizons    
*******************************************************************************
Target body name: Neptune (899)                   {source: nep097_merged}
Center body name: Earth (399)                     {source: nep097_merged}
Center-site name: (user defined site below)
*******************************************************************************
Start time      : A.D. 2026-Jan-01 00:00:00.0000 UT      
Stop  time      : A.D. 2026-Dec-31 00:00:00.0000 UT      
Step-size       : 1440 minutes
*******************************************************************************
Target pole/equ : IAU_NEPTUNE                     {West-longitude positive}
Target radii    : 24764.0, 24764.0, 24341.0 km    {Equator_a, b, pole_c}       
Center geodetic : 286.0, 40.7, 0.0                {E-lon(deg),Lat(deg),Alt(km)}
Center cylindric: 286.0, 4842.3819, 4137.22272    {E-lon(deg),Dxy(km),Dz(km)}
Center pole/equ : ITRF93                          {East-longitude positive}
Center radii    : 6378.137, 6378.137, 6356.752 km {Equator_a, b, pole_c}       
Target primary  : Sun
Vis. interferer : MOON (R_eq= 1737.400) km        {source: DE441}
Rel. light bend : Sun                             {source: nep097_merged}
Rel. lght bnd GM: 1.3271E+11 km^3/s^2                                          
Atmos refraction: NO (AIRLESS)
RA format       : HMS
Time format     : CAL 
Calendar mode   : Mixed Julian/Gregorian
EOP file        : eop.260406.p260703                                           
EOP coverage    : DATA-BASED 1962-JAN-20 TO 2026-APR-06. PREDICTS-> 2026-JUL-02
Units conversion: 1 au= 149597870.700 km, c= 299792.458 km/s, 1 day= 86400.0 s 
Table cut-offs 1: Elevation (-90.0deg=NO ),Airmass (>38.000=NO), Daylight (NO )
Table cut-offs 2: Solar elongation (  0.0,180.0=NO ),Local Hour Angle( 0.0=NO )
Table cut-offs 3: RA/DEC angular rate (     0.0=NO )                           
*******************************************************************************
 Date__(UT)__HR:MN     R.A._____(ICRF)_____DEC
**********************************************
$$SOE
 2026-Jun-14 00:00 *   00 16 27.35 +00 18 30.4
 2026-Jun-15 00:00 *m  00 16 30.13 +00 18 45.1
 2026-Jun-16 00:00 *m  00 16 32.80 +00 18 59.0
 2026-Jun-17 00:00 *m  00 16 35.35 +00 19 12.1
 2026-Jun-18 00:00 *m  00 16 37.78 +00 19 24.5
 2026-Jun-19 00:00 *m  00 16 40.10 +00 19 36.1
 2026-Jun-20 00:00 *m  00 16 42.30 +00 19 46.9
 2026-Jun-21 00:00 *m  00 16 44.38 +00 19 56.9
 2026-Jun-22 00:00 *m  00 16 46.34 +00 20 06.2
 2026-Jun-23 00:00 *m  00 16 48.19 +00 20 14.7
 2026-Jun-24 00:00 *m  00 16 49.91 +00 20 22.4
 2026-Jun-25 00:00 *m  00 16 51.52 +00 20 29.3
 2026-Jun-26 00:00 *m  00 16 53.01 +00 20 35.5
 2026-Jun-27 00:00 *m  00 16 54.38 +00 20 40.9
 2026-Jun-28 00:00 *m  00 16 55.63 +00 20 45.5
 2026-Jun-29 00:00 *   00 16 56.76 +00 20 49.4
 2026-Jun-30 00:00 *   00 16 57.77 +00 20 52.4
 2026-Jul-01 00:00 *   00 16 58.66 +00 20 54.7
 2026-Jul-02 00:00 *   00 16 59.43 +00 20 56.3
 2026-Jul-03 00:00 *   00 17 00.08 +00 20 57.0
 2026-Jul-04 00:00 *   00 17 00.62 +00 20 57.0
 2026-Jul-05 00:00 *   00 17 01.03 +00 20 56.2
 2026-Jul-06 00:00 *   00 17 01.32 +00 20 54.6
 2026-Jul-07 00:00 *   00 17 01.50 +00 20 52.3
 2026-Jul-08 00:00 *   00 17 01.55 +00 20 49.2
 2026-Jul-09 00:00 *   00 17 01.48 +00 20 45.3
 2026-Jul-10 00:00 *   00 17 01.30 +00 20 40.6
 2026-Jul-11 00:00 *   00 17 00.99 +00 20 35.2
 2026-Jul-12 00:00 *   00 17 00.57 +00 20 29.0
 2026-Jul-13 00:00 *   00 17 00.02 +00 20 22.1
 2026-Jul-14 00:00 *m  00 16 59.36 +00 20 14.3
 2026-Jul-15 00:00 *m  00 16 58.57 +00 20 05.9
 2026-Jul-16 00:00 *m  00 16 57.67 +00 19 56.6
 2026-Jul-17 00:00 *m  00 16 56.66 +00 19 46.6
 2026-Jul-18 00:00 *m  00 16 55.52 +00 19 35.9
 2026-Jul-19 00:00 *m  00 16 54.27 +00 19 24.4
 2026-Jul-20 00:00 *m  00 16 52.90 +00 19 12.2
 2026-Jul-21 00:00 *m  00 16 51.42 +00 18 59.3
 2026-Jul-22 00:00 *m  00 16 49.82 +00 18 45.7
 2026-Jul-23 00:00 *m  00 16 48.11 +00 18 31.3
 2026-Jul-24 00:00 *m  00 16 46.29 +00 18 16.2
 2026-Jul-25 00:00 *m  00 16 44.35 +00 18 00.5
 2026-Jul-26 00:00 *m  00 16 42.31 +00 17 44.0
 2026-Jul-27 00:00 *m  00 16 40.15 +00 17 26.8
 2026-Jul-28 00:00 *m  00 16 37.89 +00 17 09.0
 2026-Jul-29 00:00 *   00 16 35.51 +00 16 50.4
 2026-Jul-30 00:00 *   00 16 33.03 +00 16 31.2
 2026-Jul-31 00:00 *   00 16 30.44 +00 16 11.4
 2026-Aug-01 00:00 *   00 16 27.75 +00 15 50.8
 2026-Aug-02 00:00 *   00 16 24.95 +00 15 29.7
 2026-Aug-03 00:00 *   00 16 22.05 +00 15 07.8
 2026-Aug-04 00:00 *   00 16 19.04 +00 14 45.4
 2026-Aug-05 00:00 *   00 16 15.93 +00 14 22.3
 2026-Aug-06 00:00 *   00 16 12.72 +00 13 58.5
 2026-Aug-07 00:00 *   00 16 09.41 +00 13 34.2
 2026-Aug-08 00:00 *   00 16 06.00 +00 13 09.2
 2026-Aug-09 00:00 *   00 16 02.50 +00 12 43.7
 2026-Aug-10 00:00 *   00 15 58.89 +00 12 17.5
 2026-Aug-11 00:00 *   00 15 55.19 +00 11 50.8
 2026-Aug-12 00:00 C   00 15 51.40 +00 11 23.4
 2026-Aug-13 00:00 Cm  00 15 47.52 +00 10 55.6
 2026-Aug-14 00:00 Cm  00 15 43.54 +00 10 27.1
 2026-Aug-15 00:00 Cm  00 15 39.47 +00 09 58.2
 2026-Aug-16 00:00 Cm  00 15 35.32 +00 09 28.7
 2026-Aug-17 00:00 Cm  00 15 31.08 +00 08 58.6
 2026-Aug-18 00:00 Cm  00 15 26.76 +00 08 28.1
 2026-Aug-19 00:00 Cm  00 15 22.35 +00 07 57.1
 2026-Aug-20 00:00 Cm  00 15 17.87 +00 07 25.6
 2026-Aug-21 00:00 Cm  00 15 13.30 +00 06 53.6
 2026-Aug-22 00:00 Cm  00 15 08.66 +00 06 21.2
 2026-Aug-23 00:00 Cm  00 15 03.94 +00 05 48.3
 2026-Aug-24 00:00 Cm  00 14 59.15 +00 05 15.0
 2026-Aug-25 00:00 Cm  00 14 54.28 +00 04 41.3
 2026-Aug-26 00:00 Cm  00 14 49.35 +00 04 07.1
 2026-Aug-27 00:00 Cm  00 14 44.34 +00 03 32.6
 2026-Aug-28 00:00 Cm  00 14 39.27 +00 02 57.7
 2026-Aug-29 00:00 Cm  00 14 34.14 +00 02 22.4
 2026-Aug-30 00:00 C   00 14 28.94 +00 01 46.7
 2026-Aug-31 00:00 N   00 14 23.68 +00 01 10.7
 2026-Sep-01 00:00 N   00 14 18.36 +00 00 34.4
 2026-Sep-02 00:00 N   00 14 12.99 -00 00 02.3
 2026-Sep-03 00:00 N   00 14 07.56 -00 00 39.3
 2026-Sep-04 00:00 N   00 14 02.07 -00 01 16.6
 2026-Sep-05 00:00 N   00 13 56.53 -00 01 54.2
 2026-Sep-06 00:00 N   00 13 50.94 -00 02 32.0
 2026-Sep-07 00:00 N   00 13 45.31 -00 03 10.1
 2026-Sep-08 00:00 N   00 13 39.63 -00 03 48.5
 2026-Sep-09 00:00 N   00 13 33.90 -00 04 27.1
 2026-Sep-10 00:00 N   00 13 28.14 -00 05 05.9
 2026-Sep-11 00:00 N   00 13 22.33 -00 05 44.9
 2026-Sep-12 00:00 N   00 13 16.49 -00 06 24.0
 2026-Sep-13 00:00 N   00 13 10.61 -00 07 03.4
 2026-Sep-14 00:00 Nm  00 13 04.71 -00 07 42.9
 2026-Sep-15 00:00 Nm  00 12 58.77 -00 08 22.5
 2026-Sep-16 00:00 Nm  00 12 52.81 -00 09 02.2
 2026-Sep-17 00:00 Nm  00 12 46.82 -00 09 42.1
 2026-Sep-18 00:00 Nm  00 12 40.81 -00 10 22.0
 2026-Sep-19 00:00 Am  00 12 34.78 -00 11 02.0
 2026-Sep-20 00:00 Am  00 12 28.73 -00 11 42.1
 2026-Sep-21 00:00 Am  00 12 22.67 -00 12 22.2
 2026-Sep-22 00:00 Am  00 12 16.60 -00 13 02.3
 2026-Sep-23 00:00 Am  00 12 10.51 -00 13 42.5
 2026-Sep-24 00:00 Am  00 12 04.42 -00 14 22.6
 2026-Sep-25 00:00 Am  00 11 58.32 -00 15 02.7
 2026-Sep-26 00:00 Am  00 11 52.22 -00 15 42.8
 2026-Sep-27 00:00 Am  00 11 46.11 -00 16 22.8
 2026-Sep-28 00:00 Am  00 11 40.01 -00 17 02.8
 2026-Sep-29 00:00 Am  00 11 33.91 -00 17 42.7
 2026-Sep-30 00:00 A   00 11 27.82 -00 18 22.5
 2026-Oct-01 00:00 A   00 11 21.73 -00 19 02.2
 2026-Oct-02 00:00 A   00 11 15.66 -00 19 41.8
 2026-Oct-03 00:00 A   00 11 09.59 -00 20 21.2
 2026-Oct-04 00:00 A   00 11 03.54 -00 21 00.5
 2026-Oct-05 00:00 A   00 10 57.51 -00 21 39.6
 2026-Oct-06 00:00 A   00 10 51.50 -00 22 18.6
 2026-Oct-07 00:00 A   00 10 45.50 -00 22 57.3
 2026-Oct-08 00:00     00 10 39.54 -00 23 35.8
 2026-Oct-09 00:00     00 10 33.60 -00 24 14.1
 2026-Oct-10 00:00     00 10 27.69 -00 24 52.2
 2026-Oct-11 00:00     00 10 21.81 -00 25 30.0
 2026-Oct-12 00:00     00 10 15.96 -00 26 07.5
 2026-Oct-13 00:00     00 10 10.16 -00 26 44.7
 2026-Oct-14 00:00     00 10 04.39 -00 27 21.6
 2026-Oct-15 00:00  m  00 09 58.66 -00 27 58.1
 2026-Oct-16 00:00  m  00 09 52.98 -00 28 34.3
 2026-Oct-17 00:00  m  00 09 47.35 -00 29 10.2
 2026-Oct-18 00:00  m  00 09 41.76 -00 29 45.7
 2026-Oct-19 00:00  m  00 09 36.23 -00 30 20.8
 2026-Oct-20 00:00  m  00 09 30.75 -00 30 55.5
 2026-Oct-21 00:00  m  00 09 25.32 -00 31 29.8
 2026-Oct-22 00:00  m  00 09 19.95 -00 32 03.7
 2026-Oct-23 00:00  m  00 09 14.64 -00 32 37.1
 2026-Oct-24 00:00  m  00 09 09.39 -00 33 10.1
 2026-Oct-25 00:00  m  00 09 04.21 -00 33 42.6
 2026-Oct-26 00:00  m  00 08 59.09 -00 34 14.7
 2026-Oct-27 00:00  m  00 08 54.04 -00 34 46.3
 2026-Oct-28 00:00  m  00 08 49.06 -00 35 17.3
 2026-Oct-29 00:00  m  00 08 44.15 -00 35 47.9
 2026-Oct-30 00:00     00 08 39.31 -00 36 17.9
 2026-Oct-31 00:00     00 08 34.54 -00 36 47.4
 2026-Nov-01 00:00     00 08 29.86 -00 37 16.4
 2026-Nov-02 00:00     00 08 25.25 -00 37 44.8
 2026-Nov-03 00:00     00 08 20.73 -00 38 12.6
 2026-Nov-04 00:00     00 08 16.28 -00 38 39.8
 2026-Nov-05 00:00     00 08 11.93 -00 39 06.5
 2026-Nov-06 00:00     00 08 07.66 -00 39 32.5
 2026-Nov-07 00:00     00 08 03.47 -00 39 57.9
 2026-Nov-08 00:00     00 07 59.38 -00 40 22.7
 2026-Nov-09 00:00     00 07 55.39 -00 40 46.9
 2026-Nov-10 00:00     00 07 51.48 -00 41 10.4
 2026-Nov-11 00:00     00 07 47.67 -00 41 33.2
 2026-Nov-12 00:00     00 07 43.96 -00 41 55.3
 2026-Nov-13 00:00     00 07 40.35 -00 42 16.8
 2026-Nov-14 00:00  m  00 07 36.85 -00 42 37.6
 2026-Nov-15 00:00  m  00 07 33.44 -00 42 57.6
 2026-Nov-16 00:00  m  00 07 30.13 -00 43 17.0
 2026-Nov-17 00:00  m  00 07 26.94 -00 43 35.6
 2026-Nov-18 00:00  m  00 07 23.85 -00 43 53.5
 2026-Nov-19 00:00  m  00 07 20.86 -00 44 10.7
 2026-Nov-20 00:00  m  00 07 17.99 -00 44 27.2
 2026-Nov-21 00:00  m  00 07 15.22 -00 44 42.9
 2026-Nov-22 00:00  m  00 07 12.57 -00 44 57.8
 2026-Nov-23 00:00  m  00 07 10.03 -00 45 12.0
 2026-Nov-24 00:00  m  00 07 07.60 -00 45 25.4
